[{"OBJECT_NAME":"GPS BIII-4","OBJECT_ID":"2020-078A","EPOCH":"2026-03-15T06:47:15.490752","MEAN_MOTION":2.00565421,"ECCENTRICITY":0.00688109,"INCLINATION":53.9997,"RA_OF_ASC_NODE":214.585,"ARG_OF_PERICENTER":204.5097,"MEAN_ANOMALY":332.9899,"EPHEMERIS_TYPE":0,"CLASSIFICATION_TYPE":"U","NORAD_CAT_ID":46826,"ELEMENT_SET_NO":999,"REV_AT_EPOCH":3962,"BSTAR":0,"MEAN_MOTION_DOT":9.0e-8,"MEAN_MOTION_DDOT":0},{"OBJECT_NAME":"GSAT0223 (GALILEO 27)","OBJECT_ID":"2021-116A","EPOCH":"2026-03-14T06:48:45.625824","MEAN_MOTION":1.70475737,"ECCENTRICITY":0.00019588,"INCLINATION":57.1915,"RA_OF_ASC_NODE":344.2418,"ARG_OF_PERICENTER":285.8605,"MEAN_ANOMALY":269.7171,"EPHEMERIS_TYPE":0,"CLASSIFICATION_TYPE":"U","NORAD_CAT_ID":49809,"ELEMENT_SET_NO":999,"REV_AT_EPOCH":2656,"BSTAR":0,"MEAN_MOTION_DOT":-8.1e-7,"MEAN_MOTION_DDOT":0},{"OBJECT_NAME":"GSAT0224 (GALILEO 28)","OBJECT_ID":"2021-116B","EPOCH":"2026-03-05T06:58:38.412768","MEAN_MOTION":1.7047576,"ECCENTRICITY":0.0001942,"INCLINATION":57.1948,"RA_OF_ASC_NODE":344.4822,"ARG_OF_PERICENTER":295.2728,"MEAN_ANOMALY":253.6293,"EPHEMERIS_TYPE":0,"CLASSIFICATION_TYPE":"U","NORAD_CAT_ID":49810,"ELEMENT_SET_NO":999,"REV_AT_EPOCH":2643,"BSTAR":0,"MEAN_MOTION_DOT":-1.05e-6,"MEAN_MOTION_DDOT":0},{"OBJECT_NAME":"GOES 18","OBJECT_ID":"2022-021A","EPOCH":"2026-03-15T00:17:38.484672","MEAN_MOTION":1.00272979,"ECCENTRICITY":8.267e-5,"INCLINATION":0.0356,"RA_OF_ASC_NODE":39.05,"ARG_OF_PERICENTER":24.7142,"MEAN_ANOMALY":336.2554,"EPHEMERIS_TYPE":0,"CLASSIFICATION_TYPE":"U","NORAD_CAT_ID":51850,"ELEMENT_SET_NO":999,"REV_AT_EPOCH":564,"BSTAR":0,"MEAN_MOTION_DOT":9.6e-7,"MEAN_MOTION_DDOT":0},{"OBJECT_NAME":"COSMOS 2557 (706K)","OBJECT_ID":"2022-075A","EPOCH":"2026-03-13T20:22:48.025344","MEAN_MOTION":2.13102035,"ECCENTRICITY":0.00113868,"INCLINATION":64.3539,"RA_OF_ASC_NODE":317.846,"ARG_OF_PERICENTER":283.8913,"MEAN_ANOMALY":76.0424,"EPHEMERIS_TYPE":0,"CLASSIFICATION_TYPE":"U","NORAD_CAT_ID":52984,"ELEMENT_SET_NO":999,"REV_AT_EPOCH":2868,"BSTAR":0,"MEAN_MOTION_DOT":-2.9e-7,"MEAN_MOTION_DDOT":0},{"OBJECT_NAME":"METEOSAT-12 (MTG-I1)","OBJECT_ID":"2022-170C","EPOCH":"2026-03-15T06:45:22.588416","MEAN_MOTION":1.00271392,"ECCENTRICITY":0.00017567,"INCLINATION":0.7124,"RA_OF_ASC_NODE":23.0968,"ARG_OF_PERICENTER":290.7971,"MEAN_ANOMALY":319.9822,"EPHEMERIS_TYPE":0,"CLASSIFICATION_TYPE":"U","NORAD_CAT_ID":54743,"ELEMENT_SET_NO":999,"REV_AT_EPOCH":1203,"BSTAR":0,"MEAN_MOTION_DOT":-8.0e-8,"MEAN_MOTION_DDOT":0},{"OBJECT_NAME":"METEOR-M2 3","OBJECT_ID":"2023-091A","EPOCH":"2026-03-15T07:09:14.309856","MEAN_MOTION":14.24038213,"ECCENTRICITY":0.00050971,"INCLINATION":98.6202,"RA_OF_ASC_NODE":131.1499,"ARG_OF_PERICENTER":86.5453,"MEAN_ANOMALY":273.6309,"EPHEMERIS_TYPE":0,"CLASSIFICATION_TYPE":"U","NORAD_CAT_ID":57166,"ELEMENT_SET_NO":999,"REV_AT_EPOCH":14115,"BSTAR":2.0071689e-5,"MEAN_MOTION_DOT":3.0e-8,"MEAN_MOTION_DDOT":0},{"OBJECT_NAME":"COSMOS 2569 (703K)","OBJECT_ID":"2023-114A","EPOCH":"2026-03-13T23:51:38.664000","MEAN_MOTION":2.13103986,"ECCENTRICITY":0.00129471,"INCLINATION":65.248,"RA_OF_ASC_NODE":75.8292,"ARG_OF_PERICENTER":292.2655,"MEAN_ANOMALY":67.635,"EPHEMERIS_TYPE":0,"CLASSIFICATION_TYPE":"U","NORAD_CAT_ID":57517,"ELEMENT_SET_NO":999,"REV_AT_EPOCH":2023,"BSTAR":0,"MEAN_MOTION_DOT":5.5e-7,"MEAN_MOTION_DDOT":0},{"OBJECT_NAME":"METEOR-M2 4","OBJECT_ID":"2024-039A","EPOCH":"2026-03-15T06:38:13.165728","MEAN_MOTION":14.22418208,"ECCENTRICITY":0.00082007,"INCLINATION":98.6912,"RA_OF_ASC_NODE":34.8059,"ARG_OF_PERICENTER":82.4837,"MEAN_ANOMALY":277.7272,"EPHEMERIS_TYPE":0,"CLASSIFICATION_TYPE":"U","NORAD_CAT_ID":59051,"ELEMENT_SET_NO":999,"REV_AT_EPOCH":10591,"BSTAR":3.0410014e-5,"MEAN_MOTION_DOT":2.4e-7,"MEAN_MOTION_DDOT":0},{"OBJECT_NAME":"GSAT0225 (GALILEO 29)","OBJECT_ID":"2024-079A","EPOCH":"2026-03-14T09:15:49.598208","MEAN_MOTION":1.70475013,"ECCENTRICITY":0.00028165,"INCLINATION":55.0556,"RA_OF_ASC_NODE":103.7282,"ARG_OF_PERICENTER":259.7008,"MEAN_ANOMALY":104.1588,"EPHEMERIS_TYPE":0,"CLASSIFICATION_TYPE":"U","NORAD_CAT_ID":59598,"ELEMENT_SET_NO":999,"REV_AT_EPOCH":1170,"BSTAR":0,"MEAN_MOTION_DOT":3.8e-7,"MEAN_MOTION_DDOT":0},{"OBJECT_NAME":"GSAT0227 (GALILEO 30)","OBJECT_ID":"2024-079C","EPOCH":"2026-03-13T09:21:41.311008","MEAN_MOTION":1.70474883,"ECCENTRICITY":3.637e-5,"INCLINATION":55.0508,"RA_OF_ASC_NODE":103.7545,"ARG_OF_PERICENTER":35.432,"MEAN_ANOMALY":324.6432,"EPHEMERIS_TYPE":0,"CLASSIFICATION_TYPE":"U","NORAD_CAT_ID":59600,"ELEMENT_SET_NO":999,"REV_AT_EPOCH":1173,"BSTAR":0,"MEAN_MOTION_DOT":3.1e-7,"MEAN_MOTION_DDOT":0},{"OBJECT_NAME":"GSAT0232 (GALILEO 32)","OBJECT_ID":"2024-167A","EPOCH":"2026-02-17T15:52:34.088160","MEAN_MOTION":1.70443939,"ECCENTRICITY":0.00036004,"INCLINATION":55.2225,"RA_OF_ASC_NODE":224.5881,"ARG_OF_PERICENTER":296.6314,"MEAN_ANOMALY":116.1306,"EPHEMERIS_TYPE":0,"CLASSIFICATION_TYPE":"U","NORAD_CAT_ID":61182,"ELEMENT_SET_NO":999,"REV_AT_EPOCH":826,"BSTAR":0,"MEAN_MOTION_DOT":6.9e-7,"MEAN_MOTION_DDOT":0},{"OBJECT_NAME":"GSAT0226 (GALILEO 31)","OBJECT_ID":"2024-167B","EPOCH":"2026-03-13T18:37:21.340416","MEAN_MOTION":1.70474359,"ECCENTRICITY":0.00015841,"INCLINATION":55.2155,"RA_OF_ASC_NODE":223.9355,"ARG_OF_PERICENTER":137.4612,"MEAN_ANOMALY":46.3182,"EPHEMERIS_TYPE":0,"CLASSIFICATION_TYPE":"U","NORAD_CAT_ID":61183,"ELEMENT_SET_NO":999,"REV_AT_EPOCH":922,"BSTAR":0,"MEAN_MOTION_DOT":3.5e-7,"MEAN_MOTION_DDOT":0},{"OBJECT_NAME":"GSAT0234 (GALILEO 34)","OBJECT_ID":"2025-302C","EPOCH":"2026-03-15T02:09:30.726144","MEAN_MOTION":1.70474988,"ECCENTRICITY":0.00027706,"INCLINATION":54.2713,"RA_OF_ASC_NODE":104.8109,"ARG_OF_PERICENTER":226.2129,"MEAN_ANOMALY":140.3863,"EPHEMERIS_TYPE":0,"CLASSIFICATION_TYPE":"U","NORAD_CAT_ID":67162,"ELEMENT_SET_NO":999,"REV_AT_EPOCH":157,"BSTAR":0,"MEAN_MOTION_DOT":4.1e-7,"MEAN_MOTION_DDOT":0}]
